STARLINK-36752          
1 67724U 26026D   26060.13791392  .00173566  00000+0  88587-3 0  9997
2 67724  97.2858 114.3768 0001120  48.0680 312.0683 15.80892462  2782
STARLINK-36754          
1 67725U 26026E   26060.13686274 -.00055846  00000+0 -29332-3 0  9995
2 67725  97.2860 114.3775 0001224  56.9023 303.2362 15.80767818  2780
STARLINK-36755          
1 67726U 26026F   26060.16667824 -.01919689  00000+0 -13078-1 0  9992
2 67726  97.2854 114.4117 0001869  76.9463  96.9292 15.77961697  3944
STARLINK-36741          
1 67727U 26026G   26060.13482780 -.00786447  00000+0 -47266-2 0  9996
2 67727  97.2859 114.3788 0001005  44.8875 315.2473 15.79689659  2782
STARLINK-36757          
1 67728U 26026H   26060.13342611  .00151208  00000+0  77439-3 0  9990
2 67728  97.2862 114.3798 0001408  44.7947 315.3434 15.80876895  2784
STARLINK-36751          
1 67729U 26026J   26060.13094951  .00061287  00000+0  31813-3 0  9995
2 67729  97.2860 114.3831 0001209  62.5738 297.5653 15.80838669  2787
STARLINK-36747          
1 67730U 26026K   26060.13245104  .00163066  00000+0  83360-3 0  9997
2 67730  97.2861 114.3816 0001075  47.0999 313.0359 15.80885529  2785
STARLINK-36315          
1 67731U 26026L   26060.12998410  .00085477  00000+0  44176-3 0  9993
2 67731  97.2861 114.3844 0001138  47.5059 312.6306 15.80859288  2789
STARLINK-36260          
1 67732U 26026M   26060.19209933  .00141810  00000+0  72712-3 0  9997
2 67732  97.2862 114.4531 0001535 110.5080 249.6353 15.80875904  2796
STARLINK-36746          
1 67733U 26026N   26060.16667824 -.01947583  00000+0 -22933-1 0  9994
2 67733  97.2836 114.3822 0001885  61.6152  45.0418 15.64531425  3941
STARLINK-36749          
1 67734U 26026P   26060.12712023 -.00789719  00000+0 -48917-2 0  9998
2 67734  97.2860 114.3872 0001688 352.9572   7.1671 15.79027157  2786
STARLINK-36691          
1 67735U 26026Q   26060.12332102 -.00091578  00000+0 -48330-3 0  9994
2 67735  97.2863 114.3915 0000676  46.6141 313.5183 15.80775557  2781
