CCSDS_OMM_VERS = 2.0
CREATION_DATE  = 
ORIGINATOR     = 

OBJECT_NAME    = STARLINK-36752
OBJECT_ID      = 2026-026D
CENTER_NAME    = EARTH
REF_FRAME      = TEME
TIME_SYSTEM    = UTC
MEAN_ELEMENT_THEORY = SGP/SGP4

EPOCH          = 2026-03-01T03:18:35.762688
MEAN_MOTION    = 15.80892462
ECCENTRICITY   = .000112
INCLINATION    = 97.2858
RA_OF_ASC_NODE = 114.3768
ARG_OF_PERICENTER = 48.0680
MEAN_ANOMALY   = 312.0683

EPHEMERIS_TYPE = 0
CLASSIFICATION_TYPE = U
NORAD_CAT_ID   = 67724
ELEMENT_SET_NO = 999
REV_AT_EPOCH   = 278
BSTAR          = .88587E-3
MEAN_MOTION_DOT = .173566E-2
MEAN_MOTION_DDOT = 0

CCSDS_OMM_VERS = 2.0
CREATION_DATE  = 
ORIGINATOR     = 

OBJECT_NAME    = STARLINK-36754
OBJECT_ID      = 2026-026E
CENTER_NAME    = EARTH
REF_FRAME      = TEME
TIME_SYSTEM    = UTC
MEAN_ELEMENT_THEORY = SGP/SGP4

EPOCH          = 2026-03-01T03:17:04.940736
MEAN_MOTION    = 15.80767818
ECCENTRICITY   = .0001224
INCLINATION    = 97.2860
RA_OF_ASC_NODE = 114.3775
ARG_OF_PERICENTER = 56.9023
MEAN_ANOMALY   = 303.2362

EPHEMERIS_TYPE = 0
CLASSIFICATION_TYPE = U
NORAD_CAT_ID   = 67725
ELEMENT_SET_NO = 999
REV_AT_EPOCH   = 278
BSTAR          = -.29332E-3
MEAN_MOTION_DOT = -.55846E-3
MEAN_MOTION_DDOT = 0

CCSDS_OMM_VERS = 2.0
CREATION_DATE  = 
ORIGINATOR     = 

OBJECT_NAME    = STARLINK-36755
OBJECT_ID      = 2026-026F
CENTER_NAME    = EARTH
REF_FRAME      = TEME
TIME_SYSTEM    = UTC
MEAN_ELEMENT_THEORY = SGP/SGP4

EPOCH          = 2026-03-01T04:00:00.999936
MEAN_MOTION    = 15.77961697
ECCENTRICITY   = .0001869
INCLINATION    = 97.2854
RA_OF_ASC_NODE = 114.4117
ARG_OF_PERICENTER = 76.9463
MEAN_ANOMALY   = 96.9292

EPHEMERIS_TYPE = 0
CLASSIFICATION_TYPE = U
NORAD_CAT_ID   = 67726
ELEMENT_SET_NO = 999
REV_AT_EPOCH   = 394
BSTAR          = -.13078E-1
MEAN_MOTION_DOT = -.1919689E-1
MEAN_MOTION_DDOT = 0

CCSDS_OMM_VERS = 2.0
CREATION_DATE  = 
ORIGINATOR     = 

OBJECT_NAME    = STARLINK-36741
OBJECT_ID      = 2026-026G
CENTER_NAME    = EARTH
REF_FRAME      = TEME
TIME_SYSTEM    = UTC
MEAN_ELEMENT_THEORY = SGP/SGP4

EPOCH          = 2026-03-01T03:14:09.121920
MEAN_MOTION    = 15.79689659
ECCENTRICITY   = .0001005
INCLINATION    = 97.2859
RA_OF_ASC_NODE = 114.3788
ARG_OF_PERICENTER = 44.8875
MEAN_ANOMALY   = 315.2473

EPHEMERIS_TYPE = 0
CLASSIFICATION_TYPE = U
NORAD_CAT_ID   = 67727
ELEMENT_SET_NO = 999
REV_AT_EPOCH   = 278
BSTAR          = -.47266E-2
MEAN_MOTION_DOT = -.786447E-2
MEAN_MOTION_DDOT = 0

CCSDS_OMM_VERS = 2.0
CREATION_DATE  = 
ORIGINATOR     = 

OBJECT_NAME    = STARLINK-36757
OBJECT_ID      = 2026-026H
CENTER_NAME    = EARTH
REF_FRAME      = TEME
TIME_SYSTEM    = UTC
MEAN_ELEMENT_THEORY = SGP/SGP4

EPOCH          = 2026-03-01T03:12:08.015904
MEAN_MOTION    = 15.80876895
ECCENTRICITY   = .0001408
INCLINATION    = 97.2862
RA_OF_ASC_NODE = 114.3798
ARG_OF_PERICENTER = 44.7947
MEAN_ANOMALY   = 315.3434

EPHEMERIS_TYPE = 0
CLASSIFICATION_TYPE = U
NORAD_CAT_ID   = 67728
ELEMENT_SET_NO = 999
REV_AT_EPOCH   = 278
BSTAR          = .77439E-3
MEAN_MOTION_DOT = .151208E-2
MEAN_MOTION_DDOT = 0

CCSDS_OMM_VERS = 2.0
CREATION_DATE  = 
ORIGINATOR     = 

OBJECT_NAME    = STARLINK-36751
OBJECT_ID      = 2026-026J
CENTER_NAME    = EARTH
REF_FRAME      = TEME
TIME_SYSTEM    = UTC
MEAN_ELEMENT_THEORY = SGP/SGP4

EPOCH          = 2026-03-01T03:08:34.037664
MEAN_MOTION    = 15.80838669
ECCENTRICITY   = .0001209
INCLINATION    = 97.2860
RA_OF_ASC_NODE = 114.3831
ARG_OF_PERICENTER = 62.5738
MEAN_ANOMALY   = 297.5653

EPHEMERIS_TYPE = 0
CLASSIFICATION_TYPE = U
NORAD_CAT_ID   = 67729
ELEMENT_SET_NO = 999
REV_AT_EPOCH   = 278
BSTAR          = .31813E-3
MEAN_MOTION_DOT = .61287E-3
MEAN_MOTION_DDOT = 0

CCSDS_OMM_VERS = 2.0
CREATION_DATE  = 
ORIGINATOR     = 

OBJECT_NAME    = STARLINK-36747
OBJECT_ID      = 2026-026K
CENTER_NAME    = EARTH
REF_FRAME      = TEME
TIME_SYSTEM    = UTC
MEAN_ELEMENT_THEORY = SGP/SGP4

EPOCH          = 2026-03-01T03:10:43.769856
MEAN_MOTION    = 15.80885529
ECCENTRICITY   = .0001075
INCLINATION    = 97.2861
RA_OF_ASC_NODE = 114.3816
ARG_OF_PERICENTER = 47.0999
MEAN_ANOMALY   = 313.0359

EPHEMERIS_TYPE = 0
CLASSIFICATION_TYPE = U
NORAD_CAT_ID   = 67730
ELEMENT_SET_NO = 999
REV_AT_EPOCH   = 278
BSTAR          = .8336E-3
MEAN_MOTION_DOT = .163066E-2
MEAN_MOTION_DDOT = 0

CCSDS_OMM_VERS = 2.0
CREATION_DATE  = 
ORIGINATOR     = 

OBJECT_NAME    = STARLINK-36315
OBJECT_ID      = 2026-026L
CENTER_NAME    = EARTH
REF_FRAME      = TEME
TIME_SYSTEM    = UTC
MEAN_ELEMENT_THEORY = SGP/SGP4

EPOCH          = 2026-03-01T03:07:10.626240
MEAN_MOTION    = 15.80859288
ECCENTRICITY   = .0001138
INCLINATION    = 97.2861
RA_OF_ASC_NODE = 114.3844
ARG_OF_PERICENTER = 47.5059
MEAN_ANOMALY   = 312.6306

EPHEMERIS_TYPE = 0
CLASSIFICATION_TYPE = U
NORAD_CAT_ID   = 67731
ELEMENT_SET_NO = 999
REV_AT_EPOCH   = 278
BSTAR          = .44176E-3
MEAN_MOTION_DOT = .85477E-3
MEAN_MOTION_DDOT = 0

CCSDS_OMM_VERS = 2.0
CREATION_DATE  = 
ORIGINATOR     = 

OBJECT_NAME    = STARLINK-36260
OBJECT_ID      = 2026-026M
CENTER_NAME    = EARTH
REF_FRAME      = TEME
TIME_SYSTEM    = UTC
MEAN_ELEMENT_THEORY = SGP/SGP4

EPOCH          = 2026-03-01T04:36:37.382112
MEAN_MOTION    = 15.80875904
ECCENTRICITY   = .0001535
INCLINATION    = 97.2862
RA_OF_ASC_NODE = 114.4531
ARG_OF_PERICENTER = 110.5080
MEAN_ANOMALY   = 249.6353

EPHEMERIS_TYPE = 0
CLASSIFICATION_TYPE = U
NORAD_CAT_ID   = 67732
ELEMENT_SET_NO = 999
REV_AT_EPOCH   = 279
BSTAR          = .72712E-3
MEAN_MOTION_DOT = .14181E-2
MEAN_MOTION_DDOT = 0

CCSDS_OMM_VERS = 2.0
CREATION_DATE  = 
ORIGINATOR     = 

OBJECT_NAME    = STARLINK-36746
OBJECT_ID      = 2026-026N
CENTER_NAME    = EARTH
REF_FRAME      = TEME
TIME_SYSTEM    = UTC
MEAN_ELEMENT_THEORY = SGP/SGP4

EPOCH          = 2026-03-01T04:00:00.999936
MEAN_MOTION    = 15.64531425
ECCENTRICITY   = .0001885
INCLINATION    = 97.2836
RA_OF_ASC_NODE = 114.3822
ARG_OF_PERICENTER = 61.6152
MEAN_ANOMALY   = 45.0418

EPHEMERIS_TYPE = 0
CLASSIFICATION_TYPE = U
NORAD_CAT_ID   = 67733
ELEMENT_SET_NO = 999
REV_AT_EPOCH   = 394
BSTAR          = -.22933E-1
MEAN_MOTION_DOT = -.1947583E-1
MEAN_MOTION_DDOT = 0

CCSDS_OMM_VERS = 2.0
CREATION_DATE  = 
ORIGINATOR     = 

OBJECT_NAME    = STARLINK-36749
OBJECT_ID      = 2026-026P
CENTER_NAME    = EARTH
REF_FRAME      = TEME
TIME_SYSTEM    = UTC
MEAN_ELEMENT_THEORY = SGP/SGP4

EPOCH          = 2026-03-01T03:03:03.187872
MEAN_MOTION    = 15.79027157
ECCENTRICITY   = .0001688
INCLINATION    = 97.2860
RA_OF_ASC_NODE = 114.3872
ARG_OF_PERICENTER = 352.9572
MEAN_ANOMALY   = 7.1671

EPHEMERIS_TYPE = 0
CLASSIFICATION_TYPE = U
NORAD_CAT_ID   = 67734
ELEMENT_SET_NO = 999
REV_AT_EPOCH   = 278
BSTAR          = -.48917E-2
MEAN_MOTION_DOT = -.789719E-2
MEAN_MOTION_DDOT = 0

CCSDS_OMM_VERS = 2.0
CREATION_DATE  = 
ORIGINATOR     = 

OBJECT_NAME    = STARLINK-36691
OBJECT_ID      = 2026-026Q
CENTER_NAME    = EARTH
REF_FRAME      = TEME
TIME_SYSTEM    = UTC
MEAN_ELEMENT_THEORY = SGP/SGP4

EPOCH          = 2026-03-01T02:57:34.936128
MEAN_MOTION    = 15.80775557
ECCENTRICITY   = .0000676
INCLINATION    = 97.2863
RA_OF_ASC_NODE = 114.3915
ARG_OF_PERICENTER = 46.6141
MEAN_ANOMALY   = 313.5183

EPHEMERIS_TYPE = 0
CLASSIFICATION_TYPE = U
NORAD_CAT_ID   = 67735
ELEMENT_SET_NO = 999
REV_AT_EPOCH   = 278
BSTAR          = -.4833E-3
MEAN_MOTION_DOT = -.91578E-3
MEAN_MOTION_DDOT = 0

